[{"OBJECT_NAME":"STARLINK-5176","OBJECT_ID":"2022-136C","EPOCH":"2026-03-09T23:19:28.374816","MEAN_MOTION":15.08831945,"ECCENTRICITY":0.00016148,"INCLINATION":53.2205,"RA_OF_ASC_NODE":343.0604,"ARG_OF_PERICENTER":98.1053,"MEAN_ANOMALY":262.0122,"EPHEMERIS_TYPE":0,"CLASSIFICATION_TYPE":"U","NORAD_CAT_ID":54053,"ELEMENT_SET_NO":999,"REV_AT_EPOCH":18688,"BSTAR":-4.3790357e-5,"MEAN_MOTION_DOT":-9.85e-6,"MEAN_MOTION_DDOT":0},{"OBJECT_NAME":"PSLV DEB","OBJECT_ID":"2001-049AH","EPOCH":"2026-03-09T23:39:21.767904","MEAN_MOTION":14.98984537,"ECCENTRICITY":0.00513683,"INCLINATION":98.1237,"RA_OF_ASC_NODE":87.2704,"ARG_OF_PERICENTER":48.4953,"MEAN_ANOMALY":9.0267,"EPHEMERIS_TYPE":0,"CLASSIFICATION_TYPE":"U","NORAD_CAT_ID":27089,"ELEMENT_SET_NO":999,"REV_AT_EPOCH":31452,"BSTAR":0.000212521,"MEAN_MOTION_DOT":2.577e-5,"MEAN_MOTION_DDOT":0}]
